[{"OBJECT_NAME":"NUSAT-42 (M WONENBURGER)","OBJECT_ID":"2023-084AL","EPOCH":"2026-03-09T22:49:43.859712","MEAN_MOTION":15.40675763,"ECCENTRICITY":0.00061263,"INCLINATION":97.5565,"RA_OF_ASC_NODE":209.2187,"ARG_OF_PERICENTER":242.6372,"MEAN_ANOMALY":117.4251,"EPHEMERIS_TYPE":0,"CLASSIFICATION_TYPE":"U","NORAD_CAT_ID":56966,"ELEMENT_SET_NO":999,"REV_AT_EPOCH":15277,"BSTAR":0.000703676,"MEAN_MOTION_DOT":0.00028707,"MEAN_MOTION_DDOT":0},{"OBJECT_NAME":"STARLINK-36757","OBJECT_ID":"2026-026H","EPOCH":"2026-03-09T22:00:01.999584","MEAN_MOTION":15.47745179,"ECCENTRICITY":0.0002088,"INCLINATION":97.2845,"RA_OF_ASC_NODE":123.4678,"ARG_OF_PERICENTER":87.7955,"MEAN_ANOMALY":48.2643,"EPHEMERIS_TYPE":0,"CLASSIFICATION_TYPE":"U","NORAD_CAT_ID":67728,"ELEMENT_SET_NO":999,"REV_AT_EPOCH":535,"BSTAR":-0.044342715,"MEAN_MOTION_DOT":-0.02044206,"MEAN_MOTION_DDOT":0}]
